{"fetched_at":"2026-03-29T16:36:15Z","count":15609,"tles":[{"name":"STARLINK-35740","line1":"1 66210U 25244E   26087.44068181  .00020396  00000+0  69849-3 0  9995","line2":"2 66210  53.1583 142.5868 0001197  87.8514 272.2624 15.30217534 24537","category":"Starlink"}]}