{
  "norad_id": 66210,
  "name": "STARLINK-35740",
  "history": [
    {
      "epoch": "2026-03-28T10:34:34.908384Z",
      "apogee_km": 475.9831250648276,
      "perigee_km": 474.34230804668914,
      "latitude_deg": 1.7814125314974722e-05,
      "longitude_deg": 158.0802701135805,
      "height_km": 476.0299561658315,
      "semi_major_axis_km": 6853.299716555758,
      "eccentricity": 0.00011971,
      "inclination_deg": 53.1583,
      "raan_deg": 142.5868,
      "arg_perigee_deg": 87.8514,
      "mean_anomaly_deg": 272.2624,
      "mean_motion_rev_day": 15.30217534
    }
  ]
}